{"type": "FeatureCollection", "features": [ {"type": "Feature", "properties": {"norad_id": 30173, "name": "FENGYUN 1C DEB", "group": "fengyun-1c-debris", "lat": 42.472052376826774, "lon": 50.38384785745195, "alt_km": 878.0030479738243, "timestamp": "2025-12-13T22:39:29.984607+00:00", "meta": {"OBJECT_NAME": "FENGYUN 1C DEB", "OBJECT_ID": "1999-025UE", "EPOCH": "2025-12-13T03:52:37.968384", "MEAN_MOTION": 14.11388668, "ECCENTRICITY": 0.00804244, "INCLINATION": 98.9772, "RA_OF_ASC_NODE": 57.9218, "ARG_OF_PERICENTER": 287.412, "MEAN_ANOMALY": 101.056, "EPHEMERIS_TYPE": 0, "CLASSIFICATION_TYPE": "U", "NORAD_CAT_ID": 30173, "ELEMENT_SET_NO": 999, "REV_AT_EPOCH": 96555, "BSTAR": 0.002183886, "MEAN_MOTION_DOT": 4.03e-05, "MEAN_MOTION_DDOT": 0}, "tle": {"line1": "1 30173U 99025UE  25347.16155056  .00004030  00000+0  21839-2 0  9990", "line2": "2 30173  98.9772  57.9218 0080424 287.4120 101.0560 14.11388668965551"}}, "geometry": {"type": "Point", "coordinates": [50.38384785745195, 42.472052376826774]}}, {"type": "Feature", "properties": {"norad_id": 30174, "name": "FENGYUN 1C DEB", "group": "fengyun-1c-debris", "lat": -5.287547003058297, "lon": 137.70763716018172, "alt_km": 620.5179921713589, "timestamp": "2025-12-13T22:39:29.984617+00:00", "meta": {"OBJECT_NAME": "FENGYUN 1C DEB", "OBJECT_ID": "1999-025UF", "EPOCH": "2025-12-13T08:21:19.232064", "MEAN_MOTION": 14.81123504, "ECCENTRICITY": 0.00181996, "INCLINATION": 98.7756, "RA_OF_ASC_NODE": 136.2366, "ARG_OF_PERICENTER": 43.714, "MEAN_ANOMALY": 15.3523, "EPHEMERIS_TYPE": 0, "CLASSIFICATION_TYPE": "U", "NORAD_CAT_ID": 30174, "ELEMENT_SET_NO": 999, "REV_AT_EPOCH": 98377, "BSTAR": 0.0074545034, "MEAN_MOTION_DOT": 0.00058501, "MEAN_MOTION_DDOT": 0}, "tle": {"line1": "1 30174U 99025UF  25347.34813926  .00058501  00000+0  74545-2 0  9992", "line2": "2 30174  98.7756 136.2366 0018199  43.7140  15.3523 14.81123504983775"}}, "geometry": {"type": "Point", "coordinates": [137.70763716018172, -5.287547003058297]}}, {"type": "Feature", "properties": {"norad_id": 30175, "name": "FENGYUN 1C DEB", "group": "fengyun-1c-debris", "lat": 9.511374886253957, "lon": 42.42482990309632, "alt_km": 1052.5095525620782, "timestamp": "2025-12-13T22:39:29.984628+00:00", "meta": {"OBJECT_NAME": "FENGYUN 1C DEB", "OBJECT_ID": "1999-025UG", "EPOCH": "2025-12-13T03:50:39.877728", "MEAN_MOTION": 13.83867559, "ECCENTRICITY": 0.01463304, "INCLINATION": 99.381, "RA_OF_ASC_NODE": 43.2297, "ARG_OF_PERICENTER": 211.549, "MEAN_ANOMALY": 214.3185, "EPHEMERIS_TYPE": 0, "CLASSIFICATION_TYPE": "U", "NORAD_CAT_ID": 30175, "ELEMENT_SET_NO": 999, "REV_AT_EPOCH": 95346, "BSTAR": 0.00055754968, "MEAN_MOTION_DOT": 6.26e-06, "MEAN_MOTION_DDOT": 0}, "tle": {"line1": "1 30175U 99025UG  25347.16018377  .00000626  00000+0  55755-3 0  9998", "line2": "2 30175  99.3810  43.2297 0146330 211.5490 214.3185 13.83867559953460"}}, "geometry": {"type": "Point", "coordinates": [42.42482990309632, 9.511374886253957]}}, {"type": "Feature", "properties": {"norad_id": 30177, "name": "FENGYUN 1C DEB", "group": "fengyun-1c-debris", "lat": 73.18687390287666, "lon": -98.69904989340293, "alt_km": 838.5373271998606, "timestamp": "2025-12-13T22:39:29.984639+00:00", "meta": {"OBJECT_NAME": "FENGYUN 1C DEB", "OBJECT_ID": "1999-025UJ", "EPOCH": "2025-12-12T08:14:17.963808", "MEAN_MOTION": 13.62810519, "ECCENTRICITY": 0.04515831, "INCLINATION": 98.6265, "RA_OF_ASC_NODE": 290.0345, "ARG_OF_PERICENTER": 139.42, "MEAN_ANOMALY": 10.8367, "EPHEMERIS_TYPE": 0, "CLASSIFICATION_TYPE": "U", "NORAD_CAT_ID": 30177, "ELEMENT_SET_NO": 999, "REV_AT_EPOCH": 93457, "BSTAR": 0.00098444146, "MEAN_MOTION_DOT": 1.497e-05, "MEAN_MOTION_DDOT": 0}, "tle": {"line1": "1 30177U 99025UJ  25346.34326347  .00001497  00000+0  98444-3 0  9997", "line2": "2 30177  98.6265 290.0345 0451583 139.4200  10.8367 13.62810519934573"}}, "geometry": {"type": "Point", "coordinates": [-98.69904989340293, 73.18687390287666]}}, {"type": "Feature", "properties": {"norad_id": 30178, "name": "FENGYUN 1C DEB", "group": "fengyun-1c-debris", "lat": -47.59643180997226, "lon": -124.55641694905715, "alt_km": 1253.763789640485, "timestamp": "2025-12-13T22:39:29.984649+00:00", "meta": {"OBJECT_NAME": "FENGYUN 1C DEB", "OBJECT_ID": "1999-025UK", "EPOCH": "2025-12-13T07:19:51.908160", "MEAN_MOTION": 13.58688077, "ECCENTRICITY": 0.02805528, "INCLINATION": 102.2601, "RA_OF_ASC_NODE": 220.8731, "ARG_OF_PERICENTER": 125.8305, "MEAN_ANOMALY": 303.2526, "EPHEMERIS_TYPE": 0, "CLASSIFICATION_TYPE": "U", "NORAD_CAT_ID": 30178, "ELEMENT_SET_NO": 999, "REV_AT_EPOCH": 93179, "BSTAR": 0.0022237683, "MEAN_MOTION_DOT": 2.04e-05, "MEAN_MOTION_DDOT": 0}, "tle": {"line1": "1 30178U 99025UK  25347.30546190  .00002040  00000+0  22238-2 0  9997", "line2": "2 30178 102.2601 220.8731 0280552 125.8305 303.2526 13.58688077931795"}}, "geometry": {"type": "Point", "coordinates": [-124.55641694905715, -47.59643180997226]}}, {"type": "Feature", "properties": {"norad_id": 30181, "name": "FENGYUN 1C DEB", "group": "fengyun-1c-debris", "lat": -46.5057406222765, "lon": -118.27511764860894, "alt_km": 819.0271676599841, "timestamp": "2025-12-13T22:39:29.984659+00:00", "meta": {"OBJECT_NAME": "FENGYUN 1C DEB", "OBJECT_ID": "1999-025UN", "EPOCH": "2025-12-13T05:02:55.796064", "MEAN_MOTION": 14.29252146, "ECCENTRICITY": 0.00400676, "INCLINATION": 98.8431, "RA_OF_ASC_NODE": 70.4247, "ARG_OF_PERICENTER": 358.4609, "MEAN_ANOMALY": 55.9121, "EPHEMERIS_TYPE": 0, "CLASSIFICATION_TYPE": "U", "NORAD_CAT_ID": 30181, "ELEMENT_SET_NO": 999, "REV_AT_EPOCH": 97518, "BSTAR": 0.0022728548, "MEAN_MOTION_DOT": 5.787e-05, "MEAN_MOTION_DDOT": 0}, "tle": {"line1": "1 30181U 99025UN  25347.21036801  .00005787  00000+0  22729-2 0  9990", "line2": "2 30181  98.8431  70.4247 0040067 358.4609  55.9121 14.29252146975183"}}, "geometry": {"type": "Point", "coordinates": [-118.27511764860894, -46.5057406222765]}}, {"type": "Feature", "properties": {"norad_id": 30182, "name": "FENGYUN 1C DEB", "group": "fengyun-1c-debris", "lat": -51.240043673492394, "lon": 50.37426689106632, "alt_km": 895.2169503563655, "timestamp": "2025-12-13T22:39:29.984670+00:00", "meta": {"OBJECT_NAME": "FENGYUN 1C DEB", "OBJECT_ID": "1999-025UP", "EPOCH": "2025-12-13T02:21:53.519040", "MEAN_MOTION": 13.96458131, "ECCENTRICITY": 0.00750742, "INCLINATION": 99.066, "RA_OF_ASC_NODE": 38.0707, "ARG_OF_PERICENTER": 21.7237, "MEAN_ANOMALY": 358.486, "EPHEMERIS_TYPE": 0, "CLASSIFICATION_TYPE": "U", "NORAD_CAT_ID": 30182, "ELEMENT_SET_NO": 999, "REV_AT_EPOCH": 96313, "BSTAR": 0.00018862839, "MEAN_MOTION_DOT": 2.23e-06, "MEAN_MOTION_DDOT": 0}, "tle": {"line1": "1 30182U 99025UP  25347.09853610  .00000223  00000+0  18863-3 0  9997", "line2": "2 30182  99.0660  38.0707 0075074  21.7237 358.4860 13.96458131963133"}}, "geometry": {"type": "Point", "coordinates": [50.37426689106632, -51.240043673492394]}}, {"type": "Feature", "properties": {"norad_id": 30183, "name": "FENGYUN 1C DEB", "group": "fengyun-1c-debris", "lat": -1.2940330701695837, "lon": -150.04040453508424, "alt_km": 846.4349945039594, "timestamp": "2025-12-13T22:39:29.984681+00:00", "meta": {"OBJECT_NAME": "FENGYUN 1C DEB", "OBJECT_ID": "1999-025UQ", "EPOCH": "2025-12-13T01:41:47.010336", "MEAN_MOTION": 14.12662739, "ECCENTRICITY": 0.00259475, "INCLINATION": 98.7889, "RA_OF_ASC_NODE": 29.303, "ARG_OF_PERICENTER": 252.2269, "MEAN_ANOMALY": 169.8953, "EPHEMERIS_TYPE": 0, "CLASSIFICATION_TYPE": "U", "NORAD_CAT_ID": 30183, "ELEMENT_SET_NO": 999, "REV_AT_EPOCH": 97148, "BSTAR": 0.00076591845, "MEAN_MOTION_DOT": 1.38e-05, "MEAN_MOTION_DDOT": 0}, "tle": {"line1": "1 30183U 99025UQ  25347.07068299  .00001380  00000+0  76592-3 0  9995", "line2": "2 30183  98.7889  29.3030 0025947 252.2269 169.8953 14.12662739971489"}}, "geometry": {"type": "Point", "coordinates": [-150.04040453508424, -1.2940330701695837]}}, {"type": "Feature", "properties": {"norad_id": 30191, "name": "FENGYUN 1C DEB", "group": "fengyun-1c-debris", "lat": 28.454898637648387, "lon": 54.42895615747483, "alt_km": 676.9062993697626, "timestamp": "2025-12-13T22:39:29.984691+00:00", "meta": {"OBJECT_NAME": "FENGYUN 1C DEB", "OBJECT_ID": "1999-025UY", "EPOCH": "2025-12-13T04:56:34.609632", "MEAN_MOTION": 14.78026311, "ECCENTRICITY": 0.00971704, "INCLINATION": 98.7761, "RA_OF_ASC_NODE": 58.4278, "ARG_OF_PERICENTER": 262.028, "MEAN_ANOMALY": 160.7622, "EPHEMERIS_TYPE": 0, "CLASSIFICATION_TYPE": "U", "NORAD_CAT_ID": 30191, "ELEMENT_SET_NO": 999, "REV_AT_EPOCH": 282, "BSTAR": 0.0018064617, "MEAN_MOTION_DOT": 0.0001407, "MEAN_MOTION_DDOT": 0}, "tle": {"line1": "1 30191U 99025UY  25347.20595613  .00014070  00000+0  18065-2 0  9994", "line2": "2 30191  98.7761  58.4278 0097170 262.0280 160.7622 14.78026311  2821"}}, "geometry": {"type": "Point", "coordinates": [54.42895615747483, 28.454898637648387]}}, {"type": "Feature", "properties": {"norad_id": 30193, "name": "FENGYUN 1C DEB", "group": "fengyun-1c-debris", "lat": -22.27414260930756, "lon": -100.18018013399684, "alt_km": 800.8867864444155, "timestamp": "2025-12-13T22:39:29.984702+00:00", "meta": {"OBJECT_NAME": "FENGYUN 1C DEB", "OBJECT_ID": "1999-025VA", "EPOCH": "2025-12-13T06:44:36.537216", "MEAN_MOTION": 14.49127053, "ECCENTRICITY": 0.0107255, "INCLINATION": 98.7559, "RA_OF_ASC_NODE": 255.5125, "ARG_OF_PERICENTER": 131.4546, "MEAN_ANOMALY": 349.289, "EPHEMERIS_TYPE": 0, "CLASSIFICATION_TYPE": "U", "NORAD_CAT_ID": 30193, "ELEMENT_SET_NO": 999, "REV_AT_EPOCH": 99174, "BSTAR": 0.0011124427, "MEAN_MOTION_DOT": 4.502e-05, "MEAN_MOTION_DDOT": 0}, "tle": {"line1": "1 30193U 99025VA  25347.28097844  .00004502  00000+0  11124-2 0  9995", "line2": "2 30193  98.7559 255.5125 0107255 131.4546 349.2890 14.49127053991741"}}, "geometry": {"type": "Point", "coordinates": [-100.18018013399684, -22.27414260930756]}}]}